[{"OBJECT_NAME":"STARLINK-32256","OBJECT_ID":"2024-138H","EPOCH":"2026-03-08T09:16:59.285856","MEAN_MOTION":15.30190583,"ECCENTRICITY":7.2e-5,"INCLINATION":53.1594,"RA_OF_ASC_NODE":315.966,"ARG_OF_PERICENTER":113.4887,"MEAN_ANOMALY":246.619,"EPHEMERIS_TYPE":0,"CLASSIFICATION_TYPE":"U","NORAD_CAT_ID":60362,"ELEMENT_SET_NO":999,"REV_AT_EPOCH":9041,"BSTAR":-1.5024e-6,"MEAN_MOTION_DOT":-4.03e-6,"MEAN_MOTION_DDOT":0},{"OBJECT_NAME":"STARLINK-32267","OBJECT_ID":"2024-138J","EPOCH":"2026-03-08T02:45:34.529472","MEAN_MOTION":15.30196252,"ECCENTRICITY":8.85e-5,"INCLINATION":53.1601,"RA_OF_ASC_NODE":317.1219,"ARG_OF_PERICENTER":102.4461,"MEAN_ANOMALY":257.6638,"EPHEMERIS_TYPE":0,"CLASSIFICATION_TYPE":"U","NORAD_CAT_ID":60363,"ELEMENT_SET_NO":999,"REV_AT_EPOCH":9038,"BSTAR":3.3327e-5,"MEAN_MOTION_DOT":6.28e-6,"MEAN_MOTION_DDOT":0},{"OBJECT_NAME":"STARLINK-32270","OBJECT_ID":"2024-138K","EPOCH":"2026-03-08T02:33:23.723712","MEAN_MOTION":15.30222238,"ECCENTRICITY":0.0001256,"INCLINATION":53.1607,"RA_OF_ASC_NODE":317.0658,"ARG_OF_PERICENTER":120.0723,"MEAN_ANOMALY":240.0402,"EPHEMERIS_TYPE":0,"CLASSIFICATION_TYPE":"U","NORAD_CAT_ID":60364,"ELEMENT_SET_NO":999,"REV_AT_EPOCH":9028,"BSTAR":-0.00012147,"MEAN_MOTION_DOT":-3.957e-5,"MEAN_MOTION_DDOT":0},{"OBJECT_NAME":"STARLINK-32188","OBJECT_ID":"2024-138L","EPOCH":"2026-03-08T02:24:17.510688","MEAN_MOTION":15.3019998,"ECCENTRICITY":3.42e-5,"INCLINATION":53.1621,"RA_OF_ASC_NODE":317.0332,"ARG_OF_PERICENTER":50.6106,"MEAN_ANOMALY":309.4925,"EPHEMERIS_TYPE":0,"CLASSIFICATION_TYPE":"U","NORAD_CAT_ID":60365,"ELEMENT_SET_NO":999,"REV_AT_EPOCH":9038,"BSTAR":4.7243e-5,"MEAN_MOTION_DOT":1.041e-5,"MEAN_MOTION_DDOT":0},{"OBJECT_NAME":"STARLINK-32230","OBJECT_ID":"2024-138M","EPOCH":"2026-03-08T02:42:32.573664","MEAN_MOTION":15.30186237,"ECCENTRICITY":0.000113,"INCLINATION":53.1598,"RA_OF_ASC_NODE":317.1116,"ARG_OF_PERICENTER":87.8805,"MEAN_ANOMALY":272.2325,"EPHEMERIS_TYPE":0,"CLASSIFICATION_TYPE":"U","NORAD_CAT_ID":60366,"ELEMENT_SET_NO":999,"REV_AT_EPOCH":9038,"BSTAR":9.4898e-5,"MEAN_MOTION_DOT":2.451e-5,"MEAN_MOTION_DDOT":0},{"OBJECT_NAME":"STARLINK-32243","OBJECT_ID":"2024-138N","EPOCH":"2026-03-08T02:27:18.318240","MEAN_MOTION":15.3026115,"ECCENTRICITY":1.33e-5,"INCLINATION":53.1606,"RA_OF_ASC_NODE":317.0385,"ARG_OF_PERICENTER":83.7459,"MEAN_ANOMALY":276.3557,"EPHEMERIS_TYPE":0,"CLASSIFICATION_TYPE":"U","NORAD_CAT_ID":60367,"ELEMENT_SET_NO":999,"REV_AT_EPOCH":9038,"BSTAR":-0.00043131,"MEAN_MOTION_DOT":-0.00013134,"MEAN_MOTION_DDOT":0},{"OBJECT_NAME":"STARLINK-32271","OBJECT_ID":"2024-138P","EPOCH":"2026-03-07T20:40:01.480800","MEAN_MOTION":15.30183182,"ECCENTRICITY":9.1e-5,"INCLINATION":53.1591,"RA_OF_ASC_NODE":318.3832,"ARG_OF_PERICENTER":79.2122,"MEAN_ANOMALY":280.8981,"EPHEMERIS_TYPE":0,"CLASSIFICATION_TYPE":"U","NORAD_CAT_ID":60368,"ELEMENT_SET_NO":999,"REV_AT_EPOCH":9034,"BSTAR":-2.4288e-5,"MEAN_MOTION_DOT":-1.078e-5,"MEAN_MOTION_DDOT":0},{"OBJECT_NAME":"STARLINK-32220","OBJECT_ID":"2024-138R","EPOCH":"2026-03-08T02:36:27.550944","MEAN_MOTION":15.30188799,"ECCENTRICITY":8.29e-5,"INCLINATION":53.1601,"RA_OF_ASC_NODE":317.0824,"ARG_OF_PERICENTER":103.8303,"MEAN_ANOMALY":256.279,"EPHEMERIS_TYPE":0,"CLASSIFICATION_TYPE":"U","NORAD_CAT_ID":60370,"ELEMENT_SET_NO":999,"REV_AT_EPOCH":9038,"BSTAR":5.8295e-6,"MEAN_MOTION_DOT":-1.86e-6,"MEAN_MOTION_DDOT":0},{"OBJECT_NAME":"STARLINK-32263","OBJECT_ID":"2024-138S","EPOCH":"2026-03-08T00:04:39.296640","MEAN_MOTION":15.30194277,"ECCENTRICITY":9.82e-5,"INCLINATION":53.1601,"RA_OF_ASC_NODE":317.1338,"ARG_OF_PERICENTER":124.1523,"MEAN_ANOMALY":235.9571,"EPHEMERIS_TYPE":0,"CLASSIFICATION_TYPE":"U","NORAD_CAT_ID":60371,"ELEMENT_SET_NO":999,"REV_AT_EPOCH":9027,"BSTAR":2.2666e-5,"MEAN_MOTION_DOT":3.12e-6,"MEAN_MOTION_DDOT":0},{"OBJECT_NAME":"STARLINK-32268","OBJECT_ID":"2024-138T","EPOCH":"2026-03-08T02:57:44.491104","MEAN_MOTION":15.30190767,"ECCENTRICITY":0.0001026,"INCLINATION":53.1588,"RA_OF_ASC_NODE":317.1764,"ARG_OF_PERICENTER":88.6993,"MEAN_ANOMALY":271.4125,"EPHEMERIS_TYPE":0,"CLASSIFICATION_TYPE":"U","NORAD_CAT_ID":60372,"ELEMENT_SET_NO":999,"REV_AT_EPOCH":9038,"BSTAR":-2.3529e-5,"MEAN_MOTION_DOT":-1.056e-5,"MEAN_MOTION_DDOT":0},{"OBJECT_NAME":"STARLINK-32223","OBJECT_ID":"2024-138U","EPOCH":"2026-03-08T02:28:51.502368","MEAN_MOTION":15.30195766,"ECCENTRICITY":9.36e-5,"INCLINATION":53.1615,"RA_OF_ASC_NODE":317.0455,"ARG_OF_PERICENTER":100.2373,"MEAN_ANOMALY":259.8733,"EPHEMERIS_TYPE":0,"CLASSIFICATION_TYPE":"U","NORAD_CAT_ID":60373,"ELEMENT_SET_NO":999,"REV_AT_EPOCH":9028,"BSTAR":7.2882e-5,"MEAN_MOTION_DOT":1.8e-5,"MEAN_MOTION_DDOT":0},{"OBJECT_NAME":"STARLINK-32180","OBJECT_ID":"2024-138V","EPOCH":"2026-03-08T02:31:54.199488","MEAN_MOTION":15.30190253,"ECCENTRICITY":0.0001518,"INCLINATION":53.1628,"RA_OF_ASC_NODE":317.0686,"ARG_OF_PERICENTER":322.4748,"MEAN_ANOMALY":37.6147,"EPHEMERIS_TYPE":0,"CLASSIFICATION_TYPE":"U","NORAD_CAT_ID":60374,"ELEMENT_SET_NO":999,"REV_AT_EPOCH":9038,"BSTAR":6.6132e-5,"MEAN_MOTION_DOT":1.599e-5,"MEAN_MOTION_DDOT":0},{"OBJECT_NAME":"STARLINK-32281","OBJECT_ID":"2024-138W","EPOCH":"2026-03-08T09:42:39.476448","MEAN_MOTION":15.30192001,"ECCENTRICITY":0.0001216,"INCLINATION":53.1621,"RA_OF_ASC_NODE":315.3746,"ARG_OF_PERICENTER":95.8028,"MEAN_ANOMALY":264.3111,"EPHEMERIS_TYPE":0,"CLASSIFICATION_TYPE":"U","NORAD_CAT_ID":60375,"ELEMENT_SET_NO":999,"REV_AT_EPOCH":9033,"BSTAR":1.016e-6,"MEAN_MOTION_DOT":-3.29e-6,"MEAN_MOTION_DDOT":0},{"OBJECT_NAME":"STARLINK-32277","OBJECT_ID":"2024-138X","EPOCH":"2026-03-08T02:41:01.329216","MEAN_MOTION":15.30197139,"ECCENTRICITY":0.0001308,"INCLINATION":53.1611,"RA_OF_ASC_NODE":317.0979,"ARG_OF_PERICENTER":72.8928,"MEAN_ANOMALY":287.2216,"EPHEMERIS_TYPE":0,"CLASSIFICATION_TYPE":"U","NORAD_CAT_ID":60376,"ELEMENT_SET_NO":999,"REV_AT_EPOCH":9038,"BSTAR":-2.5551e-5,"MEAN_MOTION_DOT":-1.116e-5,"MEAN_MOTION_DDOT":0},{"OBJECT_NAME":"STARLINK-32269","OBJECT_ID":"2024-138Y","EPOCH":"2026-03-08T10:08:29.450112","MEAN_MOTION":15.30191635,"ECCENTRICITY":0.0001146,"INCLINATION":53.1622,"RA_OF_ASC_NODE":315.4786,"ARG_OF_PERICENTER":104.0227,"MEAN_ANOMALY":256.0901,"EPHEMERIS_TYPE":0,"CLASSIFICATION_TYPE":"U","NORAD_CAT_ID":60377,"ELEMENT_SET_NO":999,"REV_AT_EPOCH":9043,"BSTAR":-1.0122e-5,"MEAN_MOTION_DOT":-6.59e-6,"MEAN_MOTION_DDOT":0},{"OBJECT_NAME":"STARLINK-11228 [DTC]","OBJECT_ID":"2024-141A","EPOCH":"2026-03-08T08:36:32.437728","MEAN_MOTION":15.69700303,"ECCENTRICITY":0.000148,"INCLINATION":53.1598,"RA_OF_ASC_NODE":92.8419,"ARG_OF_PERICENTER":53.2889,"MEAN_ANOMALY":306.8264,"EPHEMERIS_TYPE":0,"CLASSIFICATION_TYPE":"U","NORAD_CAT_ID":60398,"ELEMENT_SET_NO":999,"REV_AT_EPOCH":9148,"BSTAR":-1.2838e-5,"MEAN_MOTION_DOT":-2.143e-5,"MEAN_MOTION_DDOT":0},{"OBJECT_NAME":"STARLINK-11182 [DTC]","OBJECT_ID":"2024-141B","EPOCH":"2026-03-08T11:18:42.108480","MEAN_MOTION":15.69699273,"ECCENTRICITY":0.0001233,"INCLINATION":53.1569,"RA_OF_ASC_NODE":92.1116,"ARG_OF_PERICENTER":104.608,"MEAN_ANOMALY":255.5074,"EPHEMERIS_TYPE":0,"CLASSIFICATION_TYPE":"U","NORAD_CAT_ID":60399,"ELEMENT_SET_NO":999,"REV_AT_EPOCH":9155,"BSTAR":-7.6658e-6,"MEAN_MOTION_DOT":-1.517e-5,"MEAN_MOTION_DDOT":0}]
