STARLINK-32256          
1 60362U 24138H   26067.38679729 -.00000403  00000+0 -15024-5 0  9992
2 60362  53.1594 315.9660 0000720 113.4887 246.6190 15.30190583 90414
STARLINK-32267          
1 60363U 24138J   26067.11498298  .00000628  00000+0  33327-4 0  9996
2 60363  53.1601 317.1219 0000885 102.4461 257.6638 15.30196252 90380
STARLINK-32270          
1 60364U 24138K   26067.10652458 -.00003957  00000+0 -12147-3 0  9992
2 60364  53.1607 317.0658 0001256 120.0723 240.0402 15.30222238 90281
STARLINK-32188          
1 60365U 24138L   26067.10020267  .00001041  00000+0  47243-4 0  9996
2 60365  53.1621 317.0332 0000342  50.6106 309.4925 15.30199980 90383
STARLINK-32230          
1 60366U 24138M   26067.11287701  .00002451  00000+0  94898-4 0  9990
2 60366  53.1598 317.1116 0001130  87.8805 272.2325 15.30186237 90384
STARLINK-32243          
1 60367U 24138N   26067.10229535 -.00013134  00000+0 -43131-3 0  9996
2 60367  53.1606 317.0385 0000133  83.7459 276.3557 15.30261150 90384
STARLINK-32271          
1 60368U 24138P   26066.86112825 -.00001078  00000+0 -24288-4 0  9999
2 60368  53.1591 318.3832 0000910  79.2122 280.8981 15.30183182 90344
STARLINK-32220          
1 60370U 24138R   26067.10865221 -.00000186  00000+0  58295-5 0  9999
2 60370  53.1601 317.0824 0000829 103.8303 256.2790 15.30188799 90388
STARLINK-32263          
1 60371U 24138S   26067.00323260  .00000312  00000+0  22666-4 0  9993
2 60371  53.1601 317.1338 0000982 124.1523 235.9571 15.30194277 90277
STARLINK-32268          
1 60372U 24138T   26067.12343161 -.00001056  00000+0 -23529-4 0  9996
2 60372  53.1588 317.1764 0001026  88.6993 271.4125 15.30190767 90382
STARLINK-32223          
1 60373U 24138U   26067.10337387  .00001800  00000+0  72882-4 0  9999
2 60373  53.1615 317.0455 0000936 100.2373 259.8733 15.30195766 90280
STARLINK-32180          
1 60374U 24138V   26067.10548842  .00001599  00000+0  66132-4 0  9996
2 60374  53.1628 317.0686 0001518 322.4748  37.6147 15.30190253 90380
STARLINK-32281          
1 60375U 24138W   26067.40462357 -.00000329  00000+0  10160-5 0  9998
2 60375  53.1621 315.3746 0001216  95.8028 264.3111 15.30192001 90337
STARLINK-32277          
1 60376U 24138X   26067.11182094 -.00001116  00000+0 -25551-4 0  9999
2 60376  53.1611 317.0979 0001308  72.8928 287.2216 15.30197139 90382
STARLINK-32269          
1 60377U 24138Y   26067.42256308 -.00000659  00000+0 -10122-4 0  9993
2 60377  53.1622 315.4786 0001146 104.0227 256.0901 15.30191635 90439
STARLINK-11228 [DTC]    
1 60398U 24141A   26067.35870877 -.00002143  00000+0 -12838-4 0  9991
2 60398  53.1598  92.8419 0001480  53.2889 306.8264 15.69700303 91485
STARLINK-11182 [DTC]    
1 60399U 24141B   26067.47132070 -.00001517  00000+0 -76658-5 0  9996
2 60399  53.1569  92.1116 0001233 104.6080 255.5074 15.69699273 91551
